CCSDS_OMM_VERS = 2.0
CREATION_DATE  = 
ORIGINATOR     = 

OBJECT_NAME    = STARLINK-36861
OBJECT_ID      = 2026-037C
CENTER_NAME    = EARTH
REF_FRAME      = TEME
TIME_SYSTEM    = UTC
MEAN_ELEMENT_THEORY = SGP/SGP4

EPOCH          = 2026-03-10T06:00:02.000160
MEAN_MOTION    = 15.81942337
ECCENTRICITY   = .00018117
INCLINATION    = 42.9986
RA_OF_ASC_NODE = 195.1227
ARG_OF_PERICENTER = 236.5432
MEAN_ANOMALY   = 358.7596

EPHEMERIS_TYPE = 0
CLASSIFICATION_TYPE = U
NORAD_CAT_ID   = 67934
ELEMENT_SET_NO = 999
REV_AT_EPOCH   = 328
BSTAR          = .47613864E-3
MEAN_MOTION_DOT = .100549E-2
MEAN_MOTION_DDOT = 0

CCSDS_OMM_VERS = 2.0
CREATION_DATE  = 
ORIGINATOR     = 

OBJECT_NAME    = STARLINK-36860
OBJECT_ID      = 2026-037D
CENTER_NAME    = EARTH
REF_FRAME      = TEME
TIME_SYSTEM    = UTC
MEAN_ELEMENT_THEORY = SGP/SGP4

EPOCH          = 2026-03-10T06:00:02.000160
MEAN_MOTION    = 15.81965050
ECCENTRICITY   = .00017436
INCLINATION    = 42.9986
RA_OF_ASC_NODE = 195.1119
ARG_OF_PERICENTER = 240.5648
MEAN_ANOMALY   = 359.0005

EPHEMERIS_TYPE = 0
CLASSIFICATION_TYPE = U
NORAD_CAT_ID   = 67935
ELEMENT_SET_NO = 999
REV_AT_EPOCH   = 328
BSTAR          = .39795106E-3
MEAN_MOTION_DOT = .83877E-3
MEAN_MOTION_DDOT = 0

CCSDS_OMM_VERS = 2.0
CREATION_DATE  = 
ORIGINATOR     = 

OBJECT_NAME    = STARLINK-36848
OBJECT_ID      = 2026-037E
CENTER_NAME    = EARTH
REF_FRAME      = TEME
TIME_SYSTEM    = UTC
MEAN_ELEMENT_THEORY = SGP/SGP4

EPOCH          = 2026-03-10T06:00:02.000160
MEAN_MOTION    = 15.81983069
ECCENTRICITY   = .00015266
INCLINATION    = 42.9985
RA_OF_ASC_NODE = 195.0890
ARG_OF_PERICENTER = 272.9086
MEAN_ANOMALY   = 335.1990

EPHEMERIS_TYPE = 0
CLASSIFICATION_TYPE = U
NORAD_CAT_ID   = 67936
ELEMENT_SET_NO = 999
REV_AT_EPOCH   = 328
BSTAR          = .10700928E-3
MEAN_MOTION_DOT = .22022E-3
MEAN_MOTION_DDOT = 0

CCSDS_OMM_VERS = 2.0
CREATION_DATE  = 
ORIGINATOR     = 

OBJECT_NAME    = STARLINK-36370
OBJECT_ID      = 2026-037F
CENTER_NAME    = EARTH
REF_FRAME      = TEME
TIME_SYSTEM    = UTC
MEAN_ELEMENT_THEORY = SGP/SGP4

EPOCH          = 2026-03-10T06:00:02.000160
MEAN_MOTION    = 15.81952878
ECCENTRICITY   = .00017898
INCLINATION    = 42.9987
RA_OF_ASC_NODE = 195.1015
ARG_OF_PERICENTER = 289.6575
MEAN_ANOMALY   = 314.1816

EPHEMERIS_TYPE = 0
CLASSIFICATION_TYPE = U
NORAD_CAT_ID   = 67937
ELEMENT_SET_NO = 999
REV_AT_EPOCH   = 328
BSTAR          = .48131715E-3
MEAN_MOTION_DOT = .101713E-2
MEAN_MOTION_DDOT = 0

CCSDS_OMM_VERS = 2.0
CREATION_DATE  = 
ORIGINATOR     = 

OBJECT_NAME    = STARLINK-36371
OBJECT_ID      = 2026-037G
CENTER_NAME    = EARTH
REF_FRAME      = TEME
TIME_SYSTEM    = UTC
MEAN_ELEMENT_THEORY = SGP/SGP4

EPOCH          = 2026-03-10T06:00:02.000160
MEAN_MOTION    = 15.81944035
ECCENTRICITY   = .00017172
INCLINATION    = 42.9982
RA_OF_ASC_NODE = 195.0783
ARG_OF_PERICENTER = 242.3865
MEAN_ANOMALY   = 10.0146

EPHEMERIS_TYPE = 0
CLASSIFICATION_TYPE = U
NORAD_CAT_ID   = 67938
ELEMENT_SET_NO = 999
REV_AT_EPOCH   = 328
BSTAR          = .41288071E-3
MEAN_MOTION_DOT = .86989E-3
MEAN_MOTION_DDOT = 0

CCSDS_OMM_VERS = 2.0
CREATION_DATE  = 
ORIGINATOR     = 

OBJECT_NAME    = STARLINK-36246
OBJECT_ID      = 2026-037H
CENTER_NAME    = EARTH
REF_FRAME      = TEME
TIME_SYSTEM    = UTC
MEAN_ELEMENT_THEORY = SGP/SGP4

EPOCH          = 2026-03-10T06:00:02.000160
MEAN_MOTION    = 15.81963417
ECCENTRICITY   = .00018417
INCLINATION    = 42.9986
RA_OF_ASC_NODE = 195.0681
ARG_OF_PERICENTER = 268.3405
MEAN_ANOMALY   = 348.3094

EPHEMERIS_TYPE = 0
CLASSIFICATION_TYPE = U
NORAD_CAT_ID   = 67939
ELEMENT_SET_NO = 999
REV_AT_EPOCH   = 319
BSTAR          = .40321752E-3
MEAN_MOTION_DOT = .84999E-3
MEAN_MOTION_DDOT = 0

CCSDS_OMM_VERS = 2.0
CREATION_DATE  = 
ORIGINATOR     = 

OBJECT_NAME    = STARLINK-36907
OBJECT_ID      = 2026-037J
CENTER_NAME    = EARTH
REF_FRAME      = TEME
TIME_SYSTEM    = UTC
MEAN_ELEMENT_THEORY = SGP/SGP4

EPOCH          = 2026-03-10T06:00:02.000160
MEAN_MOTION    = 15.81983633
ECCENTRICITY   = .00014171
INCLINATION    = 42.9984
RA_OF_ASC_NODE = 195.0343
ARG_OF_PERICENTER = 270.6395
MEAN_ANOMALY   = 358.8311

EPHEMERIS_TYPE = 0
CLASSIFICATION_TYPE = U
NORAD_CAT_ID   = 67940
ELEMENT_SET_NO = 999
REV_AT_EPOCH   = 328
BSTAR          = .1441423E-3
MEAN_MOTION_DOT = .29877E-3
MEAN_MOTION_DDOT = 0

CCSDS_OMM_VERS = 2.0
CREATION_DATE  = 
ORIGINATOR     = 

OBJECT_NAME    = STARLINK-36927
OBJECT_ID      = 2026-037K
CENTER_NAME    = EARTH
REF_FRAME      = TEME
TIME_SYSTEM    = UTC
MEAN_ELEMENT_THEORY = SGP/SGP4

EPOCH          = 2026-03-10T06:00:02.000160
MEAN_MOTION    = 15.81957169
ECCENTRICITY   = .00015833
INCLINATION    = 42.9984
RA_OF_ASC_NODE = 195.0132
ARG_OF_PERICENTER = 273.1536
MEAN_ANOMALY   = 4.8689

EPHEMERIS_TYPE = 0
CLASSIFICATION_TYPE = U
NORAD_CAT_ID   = 67941
ELEMENT_SET_NO = 999
REV_AT_EPOCH   = 328
BSTAR          = .37579626E-3
MEAN_MOTION_DOT = .79103E-3
MEAN_MOTION_DDOT = 0

CCSDS_OMM_VERS = 2.0
CREATION_DATE  = 
ORIGINATOR     = 

OBJECT_NAME    = STARLINK-36914
OBJECT_ID      = 2026-037L
CENTER_NAME    = EARTH
REF_FRAME      = TEME
TIME_SYSTEM    = UTC
MEAN_ELEMENT_THEORY = SGP/SGP4

EPOCH          = 2026-03-10T06:00:02.000160
MEAN_MOTION    = 15.81938396
ECCENTRICITY   = .00018828
INCLINATION    = 42.9986
RA_OF_ASC_NODE = 195.0568
ARG_OF_PERICENTER = 252.6449
MEAN_ANOMALY   = 8.2867

EPHEMERIS_TYPE = 0
CLASSIFICATION_TYPE = U
NORAD_CAT_ID   = 67942
ELEMENT_SET_NO = 999
REV_AT_EPOCH   = 328
BSTAR          = .57065677E-3
MEAN_MOTION_DOT = .120879E-2
MEAN_MOTION_DDOT = 0

CCSDS_OMM_VERS = 2.0
CREATION_DATE  = 
ORIGINATOR     = 

OBJECT_NAME    = STARLINK-36851
OBJECT_ID      = 2026-037M
CENTER_NAME    = EARTH
REF_FRAME      = TEME
TIME_SYSTEM    = UTC
MEAN_ELEMENT_THEORY = SGP/SGP4

EPOCH          = 2026-03-10T06:00:02.000160
MEAN_MOTION    = 15.81939522
ECCENTRICITY   = .00015839
INCLINATION    = 42.9985
RA_OF_ASC_NODE = 195.0464
ARG_OF_PERICENTER = 254.1090
MEAN_ANOMALY   = 11.1012

EPHEMERIS_TYPE = 0
CLASSIFICATION_TYPE = U
NORAD_CAT_ID   = 67943
ELEMENT_SET_NO = 999
REV_AT_EPOCH   = 328
BSTAR          = .54718111E-3
MEAN_MOTION_DOT = .11582E-2
MEAN_MOTION_DDOT = 0

CCSDS_OMM_VERS = 2.0
CREATION_DATE  = 
ORIGINATOR     = 

OBJECT_NAME    = STARLINK-36892
OBJECT_ID      = 2026-037N
CENTER_NAME    = EARTH
REF_FRAME      = TEME
TIME_SYSTEM    = UTC
MEAN_ELEMENT_THEORY = SGP/SGP4

EPOCH          = 2026-03-10T06:00:02.000160
MEAN_MOTION    = 15.81964516
ECCENTRICITY   = .00018647
INCLINATION    = 42.9985
RA_OF_ASC_NODE = 195.0249
ARG_OF_PERICENTER = 281.6272
MEAN_ANOMALY   = 352.1318

EPHEMERIS_TYPE = 0
CLASSIFICATION_TYPE = U
NORAD_CAT_ID   = 67944
ELEMENT_SET_NO = 999
REV_AT_EPOCH   = 328
BSTAR          = .28049537E-3
MEAN_MOTION_DOT = .5879E-3
MEAN_MOTION_DDOT = 0

CCSDS_OMM_VERS = 2.0
CREATION_DATE  = 
ORIGINATOR     = 

OBJECT_NAME    = STARLINK-36908
OBJECT_ID      = 2026-037P
CENTER_NAME    = EARTH
REF_FRAME      = TEME
TIME_SYSTEM    = UTC
MEAN_ELEMENT_THEORY = SGP/SGP4

EPOCH          = 2026-03-10T06:00:02.000160
MEAN_MOTION    = 15.81993732
ECCENTRICITY   = .00016434
INCLINATION    = 42.9984
RA_OF_ASC_NODE = 195.0027
ARG_OF_PERICENTER = 261.3544
MEAN_ANOMALY   = 20.9366

EPHEMERIS_TYPE = 0
CLASSIFICATION_TYPE = U
NORAD_CAT_ID   = 67945
ELEMENT_SET_NO = 999
REV_AT_EPOCH   = 328
BSTAR          = .1277473E-3
MEAN_MOTION_DOT = .2642E-3
MEAN_MOTION_DDOT = 0

