STARLINK-36861          
1 67934U 26037C   26069.25002315  .00100549  00000+0  47614-3 0  9991
2 67934  42.9986 195.1227 0001811 236.5432 358.7596 15.81942337  3281
STARLINK-36860          
1 67935U 26037D   26069.25002315  .00083877  00000+0  39795-3 0  9997
2 67935  42.9986 195.1119 0001743 240.5648 359.0005 15.81965050  3286
STARLINK-36848          
1 67936U 26037E   26069.25002315  .00022022  00000+0  10701-3 0  9999
2 67936  42.9985 195.0890 0001526 272.9086 335.1990 15.81983069  3283
STARLINK-36370          
1 67937U 26037F   26069.25002315  .00101713  00000+0  48132-3 0  9994
2 67937  42.9987 195.1015 0001789 289.6575 314.1816 15.81952878  3283
STARLINK-36371          
1 67938U 26037G   26069.25002315  .00086989  00000+0  41288-3 0  9997
2 67938  42.9982 195.0783 0001717 242.3865  10.0146 15.81944035  3283
STARLINK-36246          
1 67939U 26037H   26069.25002315  .00084999  00000+0  40322-3 0  9995
2 67939  42.9986 195.0681 0001841 268.3405 348.3094 15.81963417  3195
STARLINK-36907          
1 67940U 26037J   26069.25002315  .00029877  00000+0  14414-3 0  9994
2 67940  42.9984 195.0343 0001417 270.6395 358.8311 15.81983633  3283
STARLINK-36927          
1 67941U 26037K   26069.25002315  .00079103  00000+0  37580-3 0  9991
2 67941  42.9984 195.0132 0001583 273.1536   4.8689 15.81957169  3280
STARLINK-36914          
1 67942U 26037L   26069.25002315  .00120879  00000+0  57066-3 0  9990
2 67942  42.9986 195.0568 0001882 252.6449   8.2867 15.81938396  3280
STARLINK-36851          
1 67943U 26037M   26069.25002315  .00115820  00000+0  54718-3 0  9992
2 67943  42.9985 195.0464 0001583 254.1090  11.1012 15.81939522  3289
STARLINK-36892          
1 67944U 26037N   26069.25002315  .00058790  00000+0  28050-3 0  9995
2 67944  42.9985 195.0249 0001864 281.6272 352.1318 15.81964516  3288
STARLINK-36908          
1 67945U 26037P   26069.25002315  .00026420  00000+0  12775-3 0  9998
2 67945  42.9984 195.0027 0001643 261.3544  20.9366 15.81993732  3289
